{
  "type": "FeatureCollection",
  "crs": {
    "type": "name",
    "properties": {
      "name": "urn:ogc:def:crs:OGC:1.3:CRS84"
    }
  },
  "features": [
    {
      "type": "Feature",
      "geometry": {
        "type": "Point",
        "coordinates": [
          0.0,
          0.0
        ]
      },
      "properties": {
        "target_id": "SSS_TARGET_01",
        "species": "ghost_net",
        "confidence": 0.8907,
        "depth_m": 24.0,
        "dimensions_m": "3.94x7.09x0.5",
        "removal_priority": "HIGH",
        "entanglement_risk": "CRITICAL",
        "sensor_contributions": {
          "side_scan_yolo": 0.8907
        }
      }
    }
  ]
}